STARLINK-2467           
1 48126U 21027AL  25316.31652629  .00015247  00000+0  10389-2 0  9995
2 48126  53.0546 318.5257 0001345  94.3855 265.7288 15.06448337255016
STARLINK-2468           
1 48127U 21027AM  25316.30730585  .00018875  00000+0  12811-2 0  9995
2 48127  53.0547 338.5668 0001368  89.3154 270.7992 15.06445051254722
STARLINK-2469           
1 48128U 21027AN  25316.28797121  .00030027  00000+0  20235-2 0  9994
2 48128  53.0550 268.7392 0001851  87.1293 272.9908 15.06447781255692
STARLINK-2471           
1 48129U 21027AP  25316.29993988  .00012581  00000+0  86139-3 0  9996
2 48129  53.0554 338.6007 0001474  91.8808 268.2350 15.06425344254725
STARLINK-2472           
1 48130U 21027AQ  25316.27561628  .00029131  00000+0  19661-2 0  9992
2 48130  53.0553 344.2617 0001562  82.0570 278.0597 15.06407443254645
STARLINK-2473           
1 48131U 21027AR  25316.30915493  .00009641  00000+0  66502-3 0  9991
2 48131  53.0551 318.5605 0001642  96.4275 263.6901 15.06413044255009
STARLINK-2474           
1 48132U 21027AS  25316.28887804  .00017381  00000+0  11818-2 0  9992
2 48132  53.0549 338.6504 0001535  90.6031 269.5134 15.06434153254719
STARLINK-2475           
1 48133U 21027AT  25316.28519069  .00003500  00000+0  25361-3 0  9995
2 48133  53.0549 338.6671 0001527  86.1081 274.0083 15.06421453254725
STARLINK-2476           
1 48134U 21027AU  25316.27044431 -.00002615  00000+0 -15671-3 0  9992
2 48134  53.0549 338.7361 0001772  85.9556 274.1635 15.06396648254719
STARLINK-2478           
1 48135U 21027AV  25316.27185026  .00003451  00000+0  25032-3 0  9998
2 48135  53.0549 343.8925 0001274  88.4310 271.6825 15.06419023254644
STARLINK-2479           
1 48136U 21027AW  25316.27790836  .00000511  00000+0  53173-4 0  9992
2 48136  53.0548 339.2002 0001389 105.7547 254.3595 15.06395054254718
STARLINK-2480           
1 48137U 21027AX  25316.25385940  .00009471  00000+0  65328-3 0  9995
2 48137  53.0554 318.7793 0001387 100.1808 259.9337 15.06431759254990
STARLINK-2481           
1 48138U 21027AY  25316.28150904  .00011735  00000+0  80476-3 0  9996
2 48138  53.0548 338.6839 0001471  80.0900 280.0255 15.06428178254725
STARLINK-2482           
1 48139U 21027AZ  25316.27229802  .00013169  00000+0  90058-3 0  9990
2 48139  53.0544 318.7272 0001497  94.6052 265.5108 15.06431032255009
STARLINK-2483           
1 48140U 21027BA  25316.29263254  .00009103  00000+0  62876-3 0  9993
2 48140  53.0545 339.1833 0001494  77.8248 282.2908 15.06427984254711
STARLINK-2485           
1 48142U 21027BC  25316.26860630  .00009312  00000+0  64288-3 0  9994
2 48142  53.0552 318.7443 0001614  93.3726 266.7447 15.06418183255008
