[{"OBJECT_NAME":"STARLINK-2467","OBJECT_ID":"2021-027AL","EPOCH":"2025-11-12T07:35:47.871456","MEAN_MOTION":15.06448337,"ECCENTRICITY":0.00013451,"INCLINATION":53.0546,"RA_OF_ASC_NODE":318.5257,"ARG_OF_PERICENTER":94.3855,"MEAN_ANOMALY":265.7288,"EPHEMERIS_TYPE":0,"CLASSIFICATION_TYPE":"U","NORAD_CAT_ID":48126,"ELEMENT_SET_NO":999,"REV_AT_EPOCH":25501,"BSTAR":0.0010388946,"MEAN_MOTION_DOT":0.00015247,"MEAN_MOTION_DDOT":0},{"OBJECT_NAME":"STARLINK-2468","OBJECT_ID":"2021-027AM","EPOCH":"2025-11-12T07:22:31.225440","MEAN_MOTION":15.06445051,"ECCENTRICITY":0.00013684,"INCLINATION":53.0547,"RA_OF_ASC_NODE":338.5668,"ARG_OF_PERICENTER":89.3154,"MEAN_ANOMALY":270.7992,"EPHEMERIS_TYPE":0,"CLASSIFICATION_TYPE":"U","NORAD_CAT_ID":48127,"ELEMENT_SET_NO":999,"REV_AT_EPOCH":25472,"BSTAR":0.0012810794,"MEAN_MOTION_DOT":0.00018875,"MEAN_MOTION_DDOT":0},{"OBJECT_NAME":"STARLINK-2469","OBJECT_ID":"2021-027AN","EPOCH":"2025-11-12T06:54:40.712544","MEAN_MOTION":15.06447781,"ECCENTRICITY":0.00018514,"INCLINATION":53.055,"RA_OF_ASC_NODE":268.7392,"ARG_OF_PERICENTER":87.1293,"MEAN_ANOMALY":272.9908,"EPHEMERIS_TYPE":0,"CLASSIFICATION_TYPE":"U","NORAD_CAT_ID":48128,"ELEMENT_SET_NO":999,"REV_AT_EPOCH":25569,"BSTAR":0.0020235222,"MEAN_MOTION_DOT":0.00030027,"MEAN_MOTION_DDOT":0},{"OBJECT_NAME":"STARLINK-2471","OBJECT_ID":"2021-027AP","EPOCH":"2025-11-12T07:11:54.805632","MEAN_MOTION":15.06425344,"ECCENTRICITY":0.00014749,"INCLINATION":53.0554,"RA_OF_ASC_NODE":338.6007,"ARG_OF_PERICENTER":91.8808,"MEAN_ANOMALY":268.235,"EPHEMERIS_TYPE":0,"CLASSIFICATION_TYPE":"U","NORAD_CAT_ID":48129,"ELEMENT_SET_NO":999,"REV_AT_EPOCH":25472,"BSTAR":0.00086138512,"MEAN_MOTION_DOT":0.00012581,"MEAN_MOTION_DDOT":0},{"OBJECT_NAME":"STARLINK-2472","OBJECT_ID":"2021-027AQ","EPOCH":"2025-11-12T06:36:53.246592","MEAN_MOTION":15.06407443,"ECCENTRICITY":0.00015625,"INCLINATION":53.0553,"RA_OF_ASC_NODE":344.2617,"ARG_OF_PERICENTER":82.057,"MEAN_ANOMALY":278.0597,"EPHEMERIS_TYPE":0,"CLASSIFICATION_TYPE":"U","NORAD_CAT_ID":48130,"ELEMENT_SET_NO":999,"REV_AT_EPOCH":25464,"BSTAR":0.001966112,"MEAN_MOTION_DOT":0.00029131,"MEAN_MOTION_DDOT":0},{"OBJECT_NAME":"STARLINK-2473","OBJECT_ID":"2021-027AR","EPOCH":"2025-11-12T07:25:10.985952","MEAN_MOTION":15.06413044,"ECCENTRICITY":0.00016426,"INCLINATION":53.0551,"RA_OF_ASC_NODE":318.5605,"ARG_OF_PERICENTER":96.4275,"MEAN_ANOMALY":263.6901,"EPHEMERIS_TYPE":0,"CLASSIFICATION_TYPE":"U","NORAD_CAT_ID":48131,"ELEMENT_SET_NO":999,"REV_AT_EPOCH":25500,"BSTAR":0.00066502013,"MEAN_MOTION_DOT":9.641e-5,"MEAN_MOTION_DDOT":0},{"OBJECT_NAME":"STARLINK-2474","OBJECT_ID":"2021-027AS","EPOCH":"2025-11-12T06:55:59.062656","MEAN_MOTION":15.06434153,"ECCENTRICITY":0.00015353,"INCLINATION":53.0549,"RA_OF_ASC_NODE":338.6504,"ARG_OF_PERICENTER":90.6031,"MEAN_ANOMALY":269.5134,"EPHEMERIS_TYPE":0,"CLASSIFICATION_TYPE":"U","NORAD_CAT_ID":48132,"ELEMENT_SET_NO":999,"REV_AT_EPOCH":25471,"BSTAR":0.0011817898,"MEAN_MOTION_DOT":0.00017381,"MEAN_MOTION_DDOT":0},{"OBJECT_NAME":"STARLINK-2475","OBJECT_ID":"2021-027AT","EPOCH":"2025-11-12T06:50:40.475616","MEAN_MOTION":15.06421453,"ECCENTRICITY":0.00015272,"INCLINATION":53.0549,"RA_OF_ASC_NODE":338.6671,"ARG_OF_PERICENTER":86.1081,"MEAN_ANOMALY":274.0083,"EPHEMERIS_TYPE":0,"CLASSIFICATION_TYPE":"U","NORAD_CAT_ID":48133,"ELEMENT_SET_NO":999,"REV_AT_EPOCH":25472,"BSTAR":0.00025361046,"MEAN_MOTION_DOT":3.5e-5,"MEAN_MOTION_DDOT":0},{"OBJECT_NAME":"STARLINK-2476","OBJECT_ID":"2021-027AU","EPOCH":"2025-11-12T06:29:26.388384","MEAN_MOTION":15.06396648,"ECCENTRICITY":0.00017729,"INCLINATION":53.0549,"RA_OF_ASC_NODE":338.7361,"ARG_OF_PERICENTER":85.9556,"MEAN_ANOMALY":274.1635,"EPHEMERIS_TYPE":0,"CLASSIFICATION_TYPE":"U","NORAD_CAT_ID":48134,"ELEMENT_SET_NO":999,"REV_AT_EPOCH":25471,"BSTAR":-0.00015670539,"MEAN_MOTION_DOT":-2.615e-5,"MEAN_MOTION_DDOT":0},{"OBJECT_NAME":"STARLINK-2478","OBJECT_ID":"2021-027AV","EPOCH":"2025-11-12T06:31:27.862464","MEAN_MOTION":15.06419023,"ECCENTRICITY":0.00012742,"INCLINATION":53.0549,"RA_OF_ASC_NODE":343.8925,"ARG_OF_PERICENTER":88.431,"MEAN_ANOMALY":271.6825,"EPHEMERIS_TYPE":0,"CLASSIFICATION_TYPE":"U","NORAD_CAT_ID":48135,"ELEMENT_SET_NO":999,"REV_AT_EPOCH":25464,"BSTAR":0.00025032345,"MEAN_MOTION_DOT":3.451e-5,"MEAN_MOTION_DDOT":0},{"OBJECT_NAME":"STARLINK-2479","OBJECT_ID":"2021-027AW","EPOCH":"2025-11-12T06:40:11.282304","MEAN_MOTION":15.06395054,"ECCENTRICITY":0.00013894,"INCLINATION":53.0548,"RA_OF_ASC_NODE":339.2002,"ARG_OF_PERICENTER":105.7547,"MEAN_ANOMALY":254.3595,"EPHEMERIS_TYPE":0,"CLASSIFICATION_TYPE":"U","NORAD_CAT_ID":48136,"ELEMENT_SET_NO":999,"REV_AT_EPOCH":25471,"BSTAR":5.3172559e-5,"MEAN_MOTION_DOT":5.11e-6,"MEAN_MOTION_DDOT":0},{"OBJECT_NAME":"STARLINK-2480","OBJECT_ID":"2021-027AX","EPOCH":"2025-11-12T06:05:33.452160","MEAN_MOTION":15.06431759,"ECCENTRICITY":0.00013874,"INCLINATION":53.0554,"RA_OF_ASC_NODE":318.7793,"ARG_OF_PERICENTER":100.1808,"MEAN_ANOMALY":259.9337,"EPHEMERIS_TYPE":0,"CLASSIFICATION_TYPE":"U","NORAD_CAT_ID":48137,"ELEMENT_SET_NO":999,"REV_AT_EPOCH":25499,"BSTAR":0.00065327894,"MEAN_MOTION_DOT":9.471e-5,"MEAN_MOTION_DDOT":0},{"OBJECT_NAME":"STARLINK-2481","OBJECT_ID":"2021-027AY","EPOCH":"2025-11-12T06:45:22.381056","MEAN_MOTION":15.06428178,"ECCENTRICITY":0.00014711,"INCLINATION":53.0548,"RA_OF_ASC_NODE":338.6839,"ARG_OF_PERICENTER":80.09,"MEAN_ANOMALY":280.0255,"EPHEMERIS_TYPE":0,"CLASSIFICATION_TYPE":"U","NORAD_CAT_ID":48138,"ELEMENT_SET_NO":999,"REV_AT_EPOCH":25472,"BSTAR":0.00080475743,"MEAN_MOTION_DOT":0.00011735,"MEAN_MOTION_DDOT":0},{"OBJECT_NAME":"STARLINK-2482","OBJECT_ID":"2021-027AZ","EPOCH":"2025-11-12T06:32:06.548928","MEAN_MOTION":15.06431032,"ECCENTRICITY":0.00014978,"INCLINATION":53.0544,"RA_OF_ASC_NODE":318.7272,"ARG_OF_PERICENTER":94.6052,"MEAN_ANOMALY":265.5108,"EPHEMERIS_TYPE":0,"CLASSIFICATION_TYPE":"U","NORAD_CAT_ID":48139,"ELEMENT_SET_NO":999,"REV_AT_EPOCH":25500,"BSTAR":0.00090057755,"MEAN_MOTION_DOT":0.00013169,"MEAN_MOTION_DDOT":0},{"OBJECT_NAME":"STARLINK-2483","OBJECT_ID":"2021-027BA","EPOCH":"2025-11-12T07:01:23.451456","MEAN_MOTION":15.06427984,"ECCENTRICITY":0.00014949,"INCLINATION":53.0545,"RA_OF_ASC_NODE":339.1833,"ARG_OF_PERICENTER":77.8248,"MEAN_ANOMALY":282.2908,"EPHEMERIS_TYPE":0,"CLASSIFICATION_TYPE":"U","NORAD_CAT_ID":48140,"ELEMENT_SET_NO":999,"REV_AT_EPOCH":25471,"BSTAR":0.00062876033,"MEAN_MOTION_DOT":9.103e-5,"MEAN_MOTION_DDOT":0},{"OBJECT_NAME":"STARLINK-2485","OBJECT_ID":"2021-027BC","EPOCH":"2025-11-12T06:26:47.584320","MEAN_MOTION":15.06418183,"ECCENTRICITY":0.00016144,"INCLINATION":53.0552,"RA_OF_ASC_NODE":318.7443,"ARG_OF_PERICENTER":93.3726,"MEAN_ANOMALY":266.7447,"EPHEMERIS_TYPE":0,"CLASSIFICATION_TYPE":"U","NORAD_CAT_ID":48142,"ELEMENT_SET_NO":999,"REV_AT_EPOCH":25500,"BSTAR":0.00064287763,"MEAN_MOTION_DOT":9.312e-5,"MEAN_MOTION_DDOT":0}]
